{
  "type": "FeatureCollection",
  "features": [
    {
      "type": "Feature",
      "properties": {
        "norad_id": 64751,
        "name": "PROGRESS-MS 31",
        "group": "stations",
        "lat": 15.09592669631348,
        "lon": -67.86290739319087,
        "alt_km": 416.62949997576106,
        "timestamp": "2025-12-16T08:59:41.927819+00:00",
        "meta_object_name": "PROGRESS-MS 31",
        "meta_object_id": "2025-146A",
        "meta_epoch": "2025-12-15T21:28:14.919168",
        "meta_mean_motion": 15.49611341,
        "meta_eccentricity": 0.0003169,
        "meta_inclination": 51.6305,
        "meta_ra_of_asc_node": 126.8563,
        "meta_arg_of_pericenter": 254.4589,
        "meta_mean_anomaly": 105.605,
        "meta_ephemeris_type": 0,
        "meta_classification_type": "U",
        "meta_norad_cat_id": 64751,
        "meta_element_set_no": 999,
        "meta_rev_at_epoch": 675,
        "meta_bstar": 0.00012896231,
        "meta_mean_motion_dot": 6.813e-05,
        "meta_mean_motion_ddot": 0,
        "tle_line1": "1 64751U 25146A   25349.89461712  .00006813  00000+0  12896-3 0  9998",
        "tle_line2": "2 64751  51.6305 126.8563 0003169 254.4589 105.6050 15.49611341  6752"
      },
      "geometry": {
        "type": "Point",
        "coordinates": [
          -67.86290739319087,
          15.09592669631348
        ]
      }
    },
    {
      "type": "Feature",
      "properties": {
        "norad_id": 64786,
        "name": "TIANZHOU-9",
        "group": "stations",
        "lat": 31.586685013452065,
        "lon": 38.764156427984155,
        "alt_km": 379.12285253713435,
        "timestamp": "2025-12-16T08:59:41.927829+00:00",
        "meta_object_name": "TIANZHOU-9",
        "meta_object_id": "2025-149A",
        "meta_epoch": "2025-12-15T17:24:02.570400",
        "meta_mean_motion": 15.59304358,
        "meta_eccentricity": 0.00079014,
        "meta_inclination": 41.4685,
        "meta_ra_of_asc_node": 358.5824,
        "meta_arg_of_pericenter": 56.1338,
        "meta_mean_anomaly": 304.0252,
        "meta_ephemeris_type": 0,
        "meta_classification_type": "U",
        "meta_norad_cat_id": 64786,
        "meta_element_set_no": 999,
        "meta_rev_at_epoch": 25530,
        "meta_bstar": 0.00018266576,
        "meta_mean_motion_dot": 0.00014504,
        "meta_mean_motion_ddot": 0,
        "tle_line1": "1 64786U 25149A   25349.72502975  .00014504  00000+0  18267-3 0  9992",
        "tle_line2": "2 64786  41.4685 358.5824 0007901  56.1338 304.0252 15.59304358255303"
      },
      "geometry": {
        "type": "Point",
        "coordinates": [
          38.764156427984155,
          31.586685013452065
        ]
      }
    },
    {
      "type": "Feature",
      "properties": {
        "norad_id": 65077,
        "name": "CREW DRAGON 11",
        "group": "stations",
        "lat": 15.09592570625617,
        "lon": -67.86290653294787,
        "alt_km": 416.62950008032385,
        "timestamp": "2025-12-16T08:59:41.927839+00:00",
        "meta_object_name": "CREW DRAGON 11",
        "meta_object_id": "2025-166A",
        "meta_epoch": "2025-12-15T21:28:14.919168",
        "meta_mean_motion": 15.49611341,
        "meta_eccentricity": 0.0003169,
        "meta_inclination": 51.6305,
        "meta_ra_of_asc_node": 126.8563,
        "meta_arg_of_pericenter": 254.4589,
        "meta_mean_anomaly": 105.605,
        "meta_ephemeris_type": 0,
        "meta_classification_type": "U",
        "meta_norad_cat_id": 65077,
        "meta_element_set_no": 999,
        "meta_rev_at_epoch": 214,
        "meta_bstar": 0.00012896231,
        "meta_mean_motion_dot": 6.813e-05,
        "meta_mean_motion_ddot": 0,
        "tle_line1": "1 65077U 25166A   25349.89461712  .00006813  00000+0  12896-3 0  9992",
        "tle_line2": "2 65077  51.6305 126.8563 0003169 254.4589 105.6050 15.49611341  2143"
      },
      "geometry": {
        "type": "Point",
        "coordinates": [
          -67.86290653294787,
          15.09592570625617
        ]
      }
    },
    {
      "type": "Feature",
      "properties": {
        "norad_id": 65304,
        "name": "DRAGON CRS-33",
        "group": "stations",
        "lat": 15.095925211227966,
        "lon": -67.8629061028268,
        "alt_km": 416.62950013260706,
        "timestamp": "2025-12-16T08:59:41.927849+00:00",
        "meta_object_name": "DRAGON CRS-33",
        "meta_object_id": "2025-186A",
        "meta_epoch": "2025-12-15T21:28:14.919168",
        "meta_mean_motion": 15.49611341,
        "meta_eccentricity": 0.0003169,
        "meta_inclination": 51.6305,
        "meta_ra_of_asc_node": 126.8563,
        "meta_arg_of_pericenter": 254.4589,
        "meta_mean_anomaly": 105.605,
        "meta_ephemeris_type": 0,
        "meta_classification_type": "U",
        "meta_norad_cat_id": 65304,
        "meta_element_set_no": 999,
        "meta_rev_at_epoch": 11,
        "meta_bstar": 0.00012896231,
        "meta_mean_motion_dot": 6.813e-05,
        "meta_mean_motion_ddot": 0,
        "tle_line1": "1 65304U 25186A   25349.89461712  .00006813  00000+0  12896-3 0  9997",
        "tle_line2": "2 65304  51.6305 126.8563 0003169 254.4589 105.6050 15.49611341   111"
      },
      "geometry": {
        "type": "Point",
        "coordinates": [
          -67.8629061028268,
          15.095925211227966
        ]
      }
    },
    {
      "type": "Feature",
      "properties": {
        "norad_id": 65586,
        "name": "PROGRESS-MS 32",
        "group": "stations",
        "lat": 15.095924716199143,
        "lon": -67.86290567270518,
        "alt_km": 416.6295001848921,
        "timestamp": "2025-12-16T08:59:41.927859+00:00",
        "meta_object_name": "PROGRESS-MS 32",
        "meta_object_id": "2025-204A",
        "meta_epoch": "2025-12-15T21:28:14.919168",
        "meta_mean_motion": 15.49611341,
        "meta_eccentricity": 0.0003169,
        "meta_inclination": 51.6305,
        "meta_ra_of_asc_node": 126.8563,
        "meta_arg_of_pericenter": 254.4589,
        "meta_mean_anomaly": 105.605,
        "meta_ephemeris_type": 0,
        "meta_classification_type": "U",
        "meta_norad_cat_id": 65586,
        "meta_element_set_no": 999,
        "meta_rev_at_epoch": 27,
        "meta_bstar": 0.00012896231,
        "meta_mean_motion_dot": 6.813e-05,
        "meta_mean_motion_ddot": 0,
        "tle_line1": "1 65586U 25204A   25349.89461712  .00006813  00000+0  12896-3 0  9990",
        "tle_line2": "2 65586  51.6305 126.8563 0003169 254.4589 105.6050 15.49611341   270"
      },
      "geometry": {
        "type": "Point",
        "coordinates": [
          -67.86290567270518,
          15.095924716199143
        ]
      }
    },
    {
      "type": "Feature",
      "properties": {
        "norad_id": 65616,
        "name": "CYGNUS NG-23",
        "group": "stations",
        "lat": 15.095924221170007,
        "lon": -67.86290524258327,
        "alt_km": 416.62950023716894,
        "timestamp": "2025-12-16T08:59:41.927869+00:00",
        "meta_object_name": "CYGNUS NG-23",
        "meta_object_id": "2025-208A",
        "meta_epoch": "2025-12-15T21:28:14.919168",
        "meta_mean_motion": 15.49611341,
        "meta_eccentricity": 0.0003169,
        "meta_inclination": 51.6305,
        "meta_ra_of_asc_node": 126.8563,
        "meta_arg_of_pericenter": 254.4589,
        "meta_mean_anomaly": 105.605,
        "meta_ephemeris_type": 0,
        "meta_classification_type": "U",
        "meta_norad_cat_id": 65616,
        "meta_element_set_no": 999,
        "meta_rev_at_epoch": 22,
        "meta_bstar": 0.00012896231,
        "meta_mean_motion_dot": 6.813e-05,
        "meta_mean_motion_ddot": 0,
        "tle_line1": "1 65616U 25208A   25349.89461712  .00006813  00000+0  12896-3 0  9998",
        "tle_line2": "2 65616  51.6305 126.8563 0003169 254.4589 105.6050 15.49611341   229"
      },
      "geometry": {
        "type": "Point",
        "coordinates": [
          -67.86290524258327,
          15.095924221170007
        ]
      }
    },
    {
      "type": "Feature",
      "properties": {
        "norad_id": 65729,
        "name": "DRAGONFLY",
        "group": "stations",
        "lat": 50.50428353184245,
        "lon": -168.81946139654923,
        "alt_km": 346.6441599054888,
        "timestamp": "2025-12-16T08:59:41.927881+00:00",
        "meta_object_name": "DRAGONFLY",
        "meta_object_id": "1998-067XH",
        "meta_epoch": "2025-12-15T15:53:06.024192",
        "meta_mean_motion": 15.72920321,
        "meta_eccentricity": 0.00070154,
        "meta_inclination": 51.6241,
        "meta_ra_of_asc_node": 120.7881,
        "meta_arg_of_pericenter": 296.9718,
        "meta_mean_anomaly": 63.0564,
        "meta_ephemeris_type": 0,
        "meta_classification_type": "U",
        "meta_norad_cat_id": 65729,
        "meta_element_set_no": 999,
        "meta_rev_at_epoch": 1362,
        "meta_bstar": 0.0009891931,
        "meta_mean_motion_dot": 0.00139257,
        "meta_mean_motion_ddot": 0,
        "tle_line1": "1 65729U 98067XH  25349.66187528  .00139257  00000+0  98919-3 0  9990",
        "tle_line2": "2 65729  51.6241 120.7881 0007015 296.9718  63.0564 15.72920321 13620"
      },
      "geometry": {
        "type": "Point",
        "coordinates": [
          -168.81946139654923,
          50.50428353184245
        ]
      }
    }
  ]
}